{
    "links": {
        "self": "http://www.neowsapp.com/rest/v1/neo/3360225?api_key=iIulBulltgU6a56xZRHN4H3l9WmuAYTsLGpBGhQ2"
    },
    "id": "3360225",
    "neo_reference_id": "3360225",
    "name": "(2006 WX3)",
    "designation": "2006 WX3",
    "nasa_jpl_url": "http://ssd.jpl.nasa.gov/sbdb.cgi?sstr=3360225",
    "absolute_magnitude_h": 22.3,
    "estimated_diameter": {
        "kilometers": {
            "estimated_diameter_min": 0.0921626549,
            "estimated_diameter_max": 0.2060819612
        },
        "meters": {
            "estimated_diameter_min": 92.1626548503,
            "estimated_diameter_max": 206.0819612321
        },
        "miles": {
            "estimated_diameter_min": 0.057267201,
            "estimated_diameter_max": 0.1280533543
        },
        "feet": {
            "estimated_diameter_min": 302.370924539,
            "estimated_diameter_max": 676.1219416887
        }
    },
    "is_potentially_hazardous_asteroid": false,
    "close_approach_data": [
        {
            "close_approach_date": "1997-11-24",
            "close_approach_date_full": "1997-Nov-24 11:09",
            "epoch_date_close_approach": 880369740000,
            "relative_velocity": {
                "kilometers_per_second": "21.1864130787",
                "kilometers_per_hour": "76271.0870832415",
                "miles_per_hour": "47391.8874156953"
            },
            "miss_distance": {
                "astronomical": "0.3437038469",
                "lunar": "133.7007964441",
                "kilometers": "51417363.407046103",
                "miles": "31949268.1138901014"
            },
            "orbiting_body": "Earth"
        },
        {
            "close_approach_date": "2005-01-04",
            "close_approach_date_full": "2005-Jan-04 17:50",
            "epoch_date_close_approach": 1104861000000,
            "relative_velocity": {
                "kilometers_per_second": "6.7402170041",
                "kilometers_per_hour": "24264.7812147058",
                "miles_per_hour": "15077.1914164376"
            },
            "miss_distance": {
                "astronomical": "1.8532939397",
                "lunar": "720.9313425433",
                "kilometers": "277248825.863028439",
                "miles": "172274431.9197288982"
            },
            "orbiting_body": "Juptr"
        },
        {
            "close_approach_date": "2006-11-05",
            "close_approach_date_full": "2006-Nov-05 17:14",
            "epoch_date_close_approach": 1162746840000,
            "relative_velocity": {
                "kilometers_per_second": "12.8112976327",
                "kilometers_per_hour": "46120.6714775461",
                "miles_per_hour": "28657.5916744786"
            },
            "miss_distance": {
                "astronomical": "0.117269659",
                "lunar": "45.617897351",
                "kilometers": "17543291.20202633",
                "miles": "10900895.671690154"
            },
            "orbiting_body": "Earth"
        },
        {
            "close_approach_date": "2195-06-14",
            "close_approach_date_full": "2195-Jun-14 16:06",
            "epoch_date_close_approach": 7114579560000,
            "relative_velocity": {
                "kilometers_per_second": "4.9465637932",
                "kilometers_per_hour": "17807.6296553858",
                "miles_per_hour": "11064.9685489257"
            },
            "miss_distance": {
                "astronomical": "1.8666383523",
                "lunar": "726.1223190447",
                "kilometers": "279245121.564389601",
                "miles": "173514872.5485584538"
            },
            "orbiting_body": "Juptr"
        }
    ],
    "orbital_data": {
        "orbit_id": "14",
        "orbit_determination_date": "2017-04-06 09:07:33",
        "first_observation_date": "2006-11-21",
        "last_observation_date": "2006-12-24",
        "data_arc_in_days": 33,
        "observations_used": 50,
        "orbit_uncertainty": "7",
        "minimum_orbit_intersection": ".123217",
        "jupiter_tisserand_invariant": "2.999",
        "epoch_osculation": "2459000.5",
        "eccentricity": ".633688231189891",
        "semi_major_axis": "2.712433367767609",
        "inclination": "14.70426964656343",
        "ascending_node_longitude": "244.0955263993554",
        "orbital_period": "1631.687717381134",
        "perihelion_distance": ".9935962647265136",
        "perihelion_argument": "123.5493290604155",
        "aphelion_distance": "4.431270470808705",
        "perihelion_time": "2458891.489857034140",
        "mean_anomaly": "24.05095720809612",
        "mean_motion": ".2206304528527074",
        "equinox": "J2000",
        "orbit_class": {
            "orbit_class_type": "APO",
            "orbit_class_description": "Near-Earth asteroid orbits which cross the Earth’s orbit similar to that of 1862 Apollo",
            "orbit_class_range": "a (semi-major axis) > 1.0 AU; q (perihelion) < 1.017 AU"
        }
    },
    "is_sentry_object": false
}